ONEWEB-0228             
1 48780U 21045P   22231.36916884  .00000124  00000+0  29592-3 0  9990
2 48780  87.9163 177.2975 0002337  82.6994 277.4402 13.15549936 60541
ONEWEB-0232             
1 48781U 21045Q   22231.36282967  .00000025  00000+0  31611-4 0  9995
2 48781  87.9073 177.4116 0002252  78.1109 282.0274 13.15553982 60865
ONEWEB-0231             
1 48782U 21045R   22231.34170030 -.00000394  00000+0 -10803-2 0  9990
2 48782  87.9058 177.3302 0002920  75.9929 284.1525 13.15548807 60550
ONEWEB-0234             
1 48783U 21045S   22231.36702921  .00002728  00000+0  72099-2 0  9999
2 48783  87.9076 177.3295 0001831  62.5735 297.5581 13.15555773 60694
ONEWEB-0238             
1 48784U 21045T   22231.37867992  .00000131  00000+0  31322-3 0  9992
2 48784  87.9171 177.3600 0002068  73.8448 286.2910 13.15546889 60598
ONEWEB-0240             
1 48785U 21045U   22231.40085329 -.00000002  00000+0 -40443-4 0  9997
2 48785  87.9138 177.3095 0002771  65.1896 294.9522 13.15551884 60622
ONEWEB-0246             
1 48786U 21045V   22231.39664852  .00000320  00000+0  81617-3 0  9998
2 48786  87.9124 177.3152 0002598  79.2833 280.8590 13.15549371 60498
ONEWEB-0210             
1 48787U 21045W   22231.37127888  .00000166  00000+0  40792-3 0  9997
2 48787  87.9131 177.3249 0002894  92.2317 267.9145 13.15551111 60537
ONEWEB-0214             
1 48788U 21045X   22231.38185255  .00000218  00000+0  54554-3 0  9990
2 48788  87.9137 177.3528 0002708 104.9516 255.1914 13.15550357 60501
ONEWEB-0221             
1 48789U 21045Y   22231.38819570  .00000214  00000+0  53336-3 0  9998
2 48789  87.9130 177.3340 0002657  73.0569 287.0853 13.15549166 60595
ONEWEB-0213             
1 48790U 21045Z   22231.37550642  .00000174  00000+0  42777-3 0  9993
2 48790  87.9195 177.3498 0002573  80.6856 279.4566 13.15550845 60651
ONEWEB-0212             
1 48791U 21045AA  22231.35647851 -.00000044  00000+0 -15179-3 0  9995
2 48791  87.9192 177.3778 0001874  77.7737 282.3603 13.15550367 60641
ONEWEB-0227             
1 48792U 21045AB  22231.35016606  .00000120  00000+0  28419-3 0  9998
2 48792  87.9223 177.3822 0002246  72.7338 287.4038 13.15547705 60597
ONEWEB-0226             
1 48793U 21045AC  22231.34380350 -.00000473  00000+0 -12908-2 0  9996
2 48793  87.9190 177.3237 0002885  86.4620 273.6840 13.15547785 60569
ONEWEB-0224             
1 48794U 21045AD  22231.38607153  .00000199  00000+0  49477-3 0  9999
2 48794  87.9121 177.3056 0001894  64.4010 295.7316 13.15551011 60493
ONEWEB-0233             
1 48795U 21045AE  22231.40403843 -.00000017  00000+0 -78501-4 0  9995
2 48795  87.9192 177.3158 0002366  70.6290 289.5096 13.15549654 60507
ONEWEB-0190             
1 48796U 21045AF  22231.37763331  .00000210  00000+0  52404-3 0  9999
2 48796  87.9196 177.3127 0003455  78.9235 281.2284 13.15549858 60580
ONEWEB-0236             
1 48797U 21045AG  22231.39450511  .00000060  00000+0  12437-3 0  9990
2 48797  87.9132 177.3535 0002244  78.5108 281.6274 13.15551916 60473
ONEWEB-0248             
1 48798U 21045AH  22231.40719072 -.00000066  00000+0 -21015-3 0  9993
2 48798  87.9135 177.3235 0002970  63.6990 296.4446 13.15549543 60630
ONEWEB-0225             
1 48799U 21045AJ  22231.35227656 -.00000079  00000+0 -24369-3 0  9999
2 48799  87.9179 177.3752 0002891  72.9471 287.1976 13.15548566 60631
ONEWEB-0215             
1 48800U 21045AK  22231.39876199  .00000355  00000+0  90962-3 0  9995
2 48800  87.9130 177.3201 0003302  68.1668 291.9813 13.15548723 60518
ONEWEB-0216             
1 48801U 21045AL  22231.40931501  .00000004  00000+0 -22576-4 0  9996
2 48801  87.9171 177.3706 0002264  88.0141 272.1249 13.15550410 60528
ONEWEB-0239             
1 48802U 21045AM  22231.41350219 -.00000074  00000+0 -23156-3 0  9991
2 48802  87.9176 177.3729 0003154  66.7254 293.4208 13.15542430 60564
FENGYUN 4B              
1 48808U 21047A   22231.84489914 -.00000327  00000+0  00000+0 0  9990
2 48808   0.1249  85.2637 0001855 287.0992  33.1518  1.00275554  4568
SXM-8                   
1 48838U 21049A   22231.60813188 -.00000210  00000+0  00000+0 0  9994
2 48838   0.0387 290.0922 0001863  73.6818  97.8829  1.00268169  4602
2021-050A               
1 48840U 21050A   22231.88686171  .00011628  00000+0  41363-3 0  9994
2 48840  97.4720 307.1910 0011020 177.6246 314.7427 15.29082102 66272
2021-050B               
1 48841U 21050B   22231.83206924  .00006894  00000+0  26006-3 0  9990
2 48841  97.4705 306.7445 0011675 181.9053 272.7296 15.27305230 66235
2021-050C               
1 48842U 21050C   22231.92214236  .00008306  00000+0  30140-3 0  9990
2 48842  97.4707 307.1179 0011131 180.3213 297.7082 15.28529653 66266
2021-050D               
1 48843U 21050D   22231.81301426  .00004245  00000+0  17963-3 0  9993
2 48843  97.4695 305.8576 0009886 223.4003 246.6005 15.23704301 66199
ODYSSEY                 
1 48844U 21051A   22231.36293292  .00079440  00000+0  66143-3 0  9999
2 48844  97.4811 168.2750 0023535 139.8985 220.4019 15.69498927 67067
RAMSAT                  
1 48850U 98067SL  22231.52879873  .00115357  00000+0  57223-3 0  9997
2 48850  51.6365 353.1125 0005093 319.7072  40.3552 15.81120180 67277
NAVSTAR 81 (USA 319)    
1 48859U 21054A   22231.46834785 -.00000085  00000+0  00000+0 0  9993
2 48859  55.2157  28.5124 0006646 192.0939 149.5922  2.00570127  8710
YAOGAN-30 AA            
1 48860U 21055A   22231.52903870  .00001077  00000+0  11047-3 0  9993
2 48860  34.9967 306.5206 0005715 197.6239 162.4268 14.90663518 63712
YAOGAN-30 AB            
1 48861U 21055B   22231.50589529  .00001049  00000+0  10770-3 0  9994
2 48861  34.9960 306.3191 0005663 217.5030 142.5280 14.90652428 63700
YAOGAN-30 AC            
1 48863U 21055D   22231.53866168  .00001029  00000+0  10570-3 0  9992
2 48863  34.9981 305.6844 0006309 295.9719  64.0348 14.90654006 63442
TIANQI-14               
1 48864U 21055E   22231.47351536  .00001121  00000+0  11062-3 0  9994
2 48864  35.0077 300.7190 0007977 350.0950   9.9554 14.92203414 63524
COSMOS 2550             
1 48865U 21056A   22231.91170058  .00000012  00000+0  61843-5 0  9995
2 48865  67.1428   6.9900 0008690 266.6017 231.5466 15.33833846 64445
BD-28                   
1 48867U 98067SN  22230.56823544  .00310902  47470-4  93097-3 0  9991
2 48867  51.6243 352.5288 0007480 326.5933  33.4601 15.91781038 65943
2021-058A               
1 48871U 21058A   22231.63087944  .00017173  00000+0  36515-3 0  9996
2 48871  60.6638  69.7368 0057978 130.7979 229.8189 15.43367535 63831
STORK-5 (MARTA)         
1 48872U 21058B   22231.83021075  .00010158  00000+0  40033-3 0  9998
2 48872  60.7000 109.2568 0020614 184.0112 299.5357 15.25975904 63203
STORK-4                 
1 48873U 21058C   22231.83508628  .00010490  00000+0  41017-3 0  9995
2 48873  60.7072 109.5131 0017559 185.4287 302.8701 15.26259311 63214
CNCE3                   
1 48874U 21058D   22231.84824409  .00010250  00000+0  41276-3 0  9996
2 48874  60.7016 110.3607 0015991 217.2220 266.6223 15.25316541 63179
CNCE1                   
1 48875U 21058E   22231.84613618  .00010480  00000+0  42153-3 0  9995
2 48875  60.7022 110.3500 0015681 217.9342 266.9975 15.25340559 63170
BRIK-II                 
1 48876U 21058F   22231.69360945  .00004145  00000+0  19327-3 0  9999
2 48876  60.6767 113.5708 0020982 189.3237 170.7463 15.21573261 63095
HALO-NET FF             
1 48877U 21058G   22231.82968068  .00008426  00000+0  34800-3 0  9994
2 48877  60.7059 112.1757 0024437 202.4737 208.6782 15.24521697 63141
GUNSMOKE-J 4            
1 48878U 21058H   22231.94845265  .00006472  00000+0  28159-3 0  9990
2 48878  60.6876 112.6336 0028325 201.5838 277.6370 15.23006219 63133
STARLINK-3003           
1 48879U 21059A   22231.91667824 -.00068215  00000+0 -51300-2 0  9990
2 48879  97.5120   0.5845 0001465 136.1218 231.3241 15.02910978 64044
STARLINK-3004           
1 48880U 21059B   22231.91667824 -.00024000  00000+0 -17920-2 0  9996
2 48880  97.5143   0.5893 0001460 134.9207 241.7738 15.02886980  1304
STARLINK-3005           
1 48881U 21059C   22231.91667824 -.00024005  00000+0 -17926-2 0  9998
2 48881  97.5109   0.6196 0001277 144.1572 255.6198 15.02882716  1305
SPACEBEENZ-10           
1 48882U 21059D   22231.33552627  .00015077  00000+0  72205-3 0  9998
2 48882  97.5590   1.1100 0006809 245.4109 114.6416 15.19023231 63490
SPACEBEE-100            
1 48883U 21059E   22231.56074247  .00008799  00000+0  45249-3 0  9992
2 48883  97.5618   0.8722 0007288 240.6318 119.4187 15.16670467 63493
SPACEBEE-101            
1 48884U 21059F   22231.30856857  .00010205  00000+0  52674-3 0  9995
2 48884  97.5614   0.6001 0007022 246.1972 113.8525 15.16497378 63459
LEMUR-2-JACKSON         
1 48885U 21059G   22231.30365067  .00012117  00000+0  60537-3 0  9995
2 48885  97.5602   0.8556 0006847 239.1546 120.9014 15.17599787 63479
SPACEBEE-102            
1 48886U 21059H   22231.29789923  .00009929  00000+0  51123-3 0  9993
2 48886  97.5620   0.6144 0007023 245.7088 114.3412 15.16593512 63458
SPACEBEENZ-9            
1 48887U 21059J   22231.59999884  .00012697  00000+0  60885-3 0  9997
2 48887  97.5588   1.3694 0006767 244.0247 116.0290 15.19020374 63539
SPACEBEE-103            
1 48888U 21059K   22231.59549041  .00008442  00000+0  43255-3 0  9999
2 48888  97.5620   0.9913 0007274 241.3296 118.7206 15.16810628 63503
SPACEBEENZ-7            
1 48889U 21059L   22230.31068815  .00018650  00000+0  88830-3 0  9994
2 48889  97.5610   0.2770 0007250 249.0591 110.9867 15.19161368 63346
SPACEBEE-104            
1 48890U 21059M   22231.36080867  .00010708  00000+0  54683-3 0  9998
2 48890  97.5618   0.6608 0007222 246.0844 113.9633 15.16860388 63469
SPACEBEENZ-8            
1 48891U 21059N   22231.30294881  .00015794  00000+0  75413-3 0  9990
2 48891  97.5611   1.2598 0007294 245.1405 114.9071 15.19113249 63490
